IRIDIUM 155             
1 43573U 18061E   20285.47442648  .00000074  00000-0  19509-4 0  9993
2 43573  86.4033 203.7240 0001696  72.0383 288.0997 14.34218961115987
IRIDIUM 154             
1 43574U 18061F   20285.31586961  .00000072  00000-0  18606-4 0  9999
2 43574  86.4037 203.8251 0002444  83.1021 277.0453 14.34218428116017
IRIDIUM 163             
1 43575U 18061G   20285.50615349  .00000076  00000-0  20116-4 0  9997
2 43575  86.4034 203.7241 0002227  98.9164 261.2284 14.34217518116010
IRIDIUM 156             
1 43576U 18061H   20285.48076845  .00000073  00000-0  18988-4 0  9998
2 43576  86.4035 203.7395 0001821  89.1277 271.0127 14.34216980116004
IRIDIUM 164             
1 43577U 18061J   20285.32221209  .00000077  00000-0  20447-4 0  9995
2 43577  86.4036 203.8145 0002346  86.2620 273.8844 14.34219232116024
IRIDIUM 159             
1 43578U 18061K   20285.49980796  .00000075  00000-0  19583-4 0  9994
2 43578  86.4033 203.7207 0002324  83.8213 276.3247 14.34218278116010
IRIDIUM 180             
1 43922U 19002A   20285.15045969  .00000075  00000-0  19874-4 0  9993
2 43922  86.3966 140.7983 0003129  94.3636 265.7917 14.34218600 91576
IRIDIUM 176             
1 43923U 19002B   20285.30879939  .00000139  00000-0  18099-4 0  9992
2 43923  86.6104 140.7625 0002485  87.3499 272.8002 14.72251584 93970
IRIDIUM 168             
1 43924U 19002C   20285.35341633  .00000081  00000-0  21952-4 0  9991
2 43924  86.3968 140.7320 0002365  85.9254 274.2212 14.34218634 91589
IRIDIUM 173             
1 43925U 19002D   20285.34072999  .00000080  00000-0  21340-4 0  9997
2 43925  86.3964 140.7105 0002255  87.8217 272.3237 14.34217391 91579
IRIDIUM 169             
1 43926U 19002E   20285.40360391  .00000088  00000-0  22335-4 0  9994
2 43926  86.4282 172.2434 0004739 354.5803   5.5343 14.38611490 91939
IRIDIUM 172             
1 43927U 19002F   20285.54368949  .00000084  00000-0  22821-4 0  9993
2 43927  86.3964 140.6272 0002368  88.3261 271.8206 14.34219222 91604
IRIDIUM 175             
1 43928U 19002G   20285.09871025  .00000135  00000-0  17435-4 0  9990
2 43928  86.6086 140.7194 0001801 105.0156 255.1261 14.72251583 93930
IRIDIUM 171             
1 43929U 19002H   20285.52466199  .00000076  00000-0  20024-4 0  9993
2 43929  86.3975 140.7110 0002349  84.9916 275.1548 14.34218733 91598
IRIDIUM 170             
1 43930U 19002J   20285.51885199  .00000148  00000-0  19502-4 0  9998
2 43930  86.6101 140.6816 0002410  94.8321 265.3171 14.72250329 94017
IRIDIUM 167             
1 43931U 19002K   20285.51832125  .00000081  00000-0  21838-4 0  9991
2 43931  86.3966 140.6420 0002961  90.8791 269.2744 14.34219101 91593
